CCSDS_OMM_VERS = 2.0
CREATION_DATE  = 
ORIGINATOR     = 

OBJECT_NAME    = KUIPER-00215
OBJECT_ID      = 2026-030R
CENTER_NAME    = EARTH
REF_FRAME      = TEME
TIME_SYSTEM    = UTC
MEAN_ELEMENT_THEORY = SGP/SGP4

EPOCH          = 2026-02-25T03:28:48.545184
MEAN_MOTION    = 15.33910417
ECCENTRICITY   = .0009894
INCLINATION    = 51.8852
RA_OF_ASC_NODE = 279.7403
ARG_OF_PERICENTER = 23.5969
MEAN_ANOMALY   = 336.5468

EPHEMERIS_TYPE = 0
CLASSIFICATION_TYPE = U
NORAD_CAT_ID   = 67779
ELEMENT_SET_NO = 999
REV_AT_EPOCH   = 316
BSTAR          = .11616E-3
MEAN_MOTION_DOT = .3494E-4
MEAN_MOTION_DDOT = 0

CCSDS_OMM_VERS = 2.0
CREATION_DATE  = 
ORIGINATOR     = 

OBJECT_NAME    = KUIPER-00218
OBJECT_ID      = 2026-030S
CENTER_NAME    = EARTH
REF_FRAME      = TEME
TIME_SYSTEM    = UTC
MEAN_ELEMENT_THEORY = SGP/SGP4

EPOCH          = 2026-02-25T03:20:50.372160
MEAN_MOTION    = 15.34663276
ECCENTRICITY   = .0006385
INCLINATION    = 51.8845
RA_OF_ASC_NODE = 279.7033
ARG_OF_PERICENTER = 18.8566
MEAN_ANOMALY   = 341.2655

EPHEMERIS_TYPE = 0
CLASSIFICATION_TYPE = U
NORAD_CAT_ID   = 67780
ELEMENT_SET_NO = 999
REV_AT_EPOCH   = 316
BSTAR          = .6742E-3
MEAN_MOTION_DOT = .22694E-3
MEAN_MOTION_DDOT = 0

CCSDS_OMM_VERS = 2.0
CREATION_DATE  = 
ORIGINATOR     = 

OBJECT_NAME    = KUIPER-00220
OBJECT_ID      = 2026-030T
CENTER_NAME    = EARTH
REF_FRAME      = TEME
TIME_SYSTEM    = UTC
MEAN_ELEMENT_THEORY = SGP/SGP4

EPOCH          = 2026-02-25T01:52:17.980896
MEAN_MOTION    = 15.34172976
ECCENTRICITY   = .0008004
INCLINATION    = 51.8823
RA_OF_ASC_NODE = 280.0362
ARG_OF_PERICENTER = 20.8757
MEAN_ANOMALY   = 339.2554

EPHEMERIS_TYPE = 0
CLASSIFICATION_TYPE = U
NORAD_CAT_ID   = 67781
ELEMENT_SET_NO = 999
REV_AT_EPOCH   = 315
BSTAR          = .65549E-3
MEAN_MOTION_DOT = .21712E-3
MEAN_MOTION_DDOT = 0

CCSDS_OMM_VERS = 2.0
CREATION_DATE  = 
ORIGINATOR     = 

OBJECT_NAME    = KUIPER-00222
OBJECT_ID      = 2026-030U
CENTER_NAME    = EARTH
REF_FRAME      = TEME
TIME_SYSTEM    = UTC
MEAN_ELEMENT_THEORY = SGP/SGP4

EPOCH          = 2026-02-25T02:09:06.848640
MEAN_MOTION    = 15.32454971
ECCENTRICITY   = .0017113
INCLINATION    = 51.8820
RA_OF_ASC_NODE = 280.1092
ARG_OF_PERICENTER = 26.3298
MEAN_ANOMALY   = 333.8553

EPHEMERIS_TYPE = 0
CLASSIFICATION_TYPE = U
NORAD_CAT_ID   = 67782
ELEMENT_SET_NO = 999
REV_AT_EPOCH   = 315
BSTAR          = .65096E-3
MEAN_MOTION_DOT = .20474E-3
MEAN_MOTION_DDOT = 0

CCSDS_OMM_VERS = 2.0
CREATION_DATE  = 
ORIGINATOR     = 

OBJECT_NAME    = KUIPER-00223
OBJECT_ID      = 2026-030V
CENTER_NAME    = EARTH
REF_FRAME      = TEME
TIME_SYSTEM    = UTC
MEAN_ELEMENT_THEORY = SGP/SGP4

EPOCH          = 2026-02-25T01:58:08.205888
MEAN_MOTION    = 15.33673722
ECCENTRICITY   = .0012046
INCLINATION    = 51.8840
RA_OF_ASC_NODE = 280.0654
ARG_OF_PERICENTER = 22.9708
MEAN_ANOMALY   = 337.1813

EPHEMERIS_TYPE = 0
CLASSIFICATION_TYPE = U
NORAD_CAT_ID   = 67783
ELEMENT_SET_NO = 999
REV_AT_EPOCH   = 315
BSTAR          = .5504E-3
MEAN_MOTION_DOT = .17893E-3
MEAN_MOTION_DDOT = 0

CCSDS_OMM_VERS = 2.0
CREATION_DATE  = 
ORIGINATOR     = 

OBJECT_NAME    = KUIPER-00225
OBJECT_ID      = 2026-030W
CENTER_NAME    = EARTH
REF_FRAME      = TEME
TIME_SYSTEM    = UTC
MEAN_ELEMENT_THEORY = SGP/SGP4

EPOCH          = 2026-02-25T03:13:14.712384
MEAN_MOTION    = 15.35307798
ECCENTRICITY   = .0003527
INCLINATION    = 51.8818
RA_OF_ASC_NODE = 279.6656
ARG_OF_PERICENTER = 10.9070
MEAN_ANOMALY   = 349.1992

EPHEMERIS_TYPE = 0
CLASSIFICATION_TYPE = U
NORAD_CAT_ID   = 67784
ELEMENT_SET_NO = 999
REV_AT_EPOCH   = 316
BSTAR          = .78562E-3
MEAN_MOTION_DOT = .27069E-3
MEAN_MOTION_DDOT = 0

CCSDS_OMM_VERS = 2.0
CREATION_DATE  = 
ORIGINATOR     = 

OBJECT_NAME    = KUIPER-00226
OBJECT_ID      = 2026-030X
CENTER_NAME    = EARTH
REF_FRAME      = TEME
TIME_SYSTEM    = UTC
MEAN_ELEMENT_THEORY = SGP/SGP4

EPOCH          = 2026-02-25T02:17:26.335680
MEAN_MOTION    = 15.31542284
ECCENTRICITY   = .0019886
INCLINATION    = 51.8821
RA_OF_ASC_NODE = 280.1473
ARG_OF_PERICENTER = 32.8134
MEAN_ANOMALY   = 327.4081

EPHEMERIS_TYPE = 0
CLASSIFICATION_TYPE = U
NORAD_CAT_ID   = 67785
ELEMENT_SET_NO = 999
REV_AT_EPOCH   = 315
BSTAR          = .52894E-3
MEAN_MOTION_DOT = .16105E-3
MEAN_MOTION_DDOT = 0

CCSDS_OMM_VERS = 2.0
CREATION_DATE  = 
ORIGINATOR     = 

OBJECT_NAME    = KUIPER-00259
OBJECT_ID      = 2026-030Y
CENTER_NAME    = EARTH
REF_FRAME      = TEME
TIME_SYSTEM    = UTC
MEAN_ELEMENT_THEORY = SGP/SGP4

EPOCH          = 2026-02-25T01:48:56.640384
MEAN_MOTION    = 15.34493918
ECCENTRICITY   = .0007712
INCLINATION    = 51.8821
RA_OF_ASC_NODE = 280.0211
ARG_OF_PERICENTER = 13.9522
MEAN_ANOMALY   = 346.1675

EPHEMERIS_TYPE = 0
CLASSIFICATION_TYPE = U
NORAD_CAT_ID   = 67786
ELEMENT_SET_NO = 999
REV_AT_EPOCH   = 315
BSTAR          = .6174E-3
MEAN_MOTION_DOT = .20636E-3
MEAN_MOTION_DDOT = 0

CCSDS_OMM_VERS = 2.0
CREATION_DATE  = 
ORIGINATOR     = 

OBJECT_NAME    = KUIPER-00260
OBJECT_ID      = 2026-030Z
CENTER_NAME    = EARTH
REF_FRAME      = TEME
TIME_SYSTEM    = UTC
MEAN_ELEMENT_THEORY = SGP/SGP4

EPOCH          = 2026-02-25T04:40:11.560800
MEAN_MOTION    = 15.35844817
ECCENTRICITY   = .0001231
INCLINATION    = 51.8804
RA_OF_ASC_NODE = 279.3208
ARG_OF_PERICENTER = 82.8737
MEAN_ANOMALY   = 277.2390

EPHEMERIS_TYPE = 0
CLASSIFICATION_TYPE = U
NORAD_CAT_ID   = 67787
ELEMENT_SET_NO = 999
REV_AT_EPOCH   = 308
BSTAR          = .52774E-3
MEAN_MOTION_DOT = .18352E-3
MEAN_MOTION_DDOT = 0

CCSDS_OMM_VERS = 2.0
CREATION_DATE  = 
ORIGINATOR     = 

OBJECT_NAME    = KUIPER-00262
OBJECT_ID      = 2026-030AA
CENTER_NAME    = EARTH
REF_FRAME      = TEME
TIME_SYSTEM    = UTC
MEAN_ELEMENT_THEORY = SGP/SGP4

EPOCH          = 2026-02-25T04:37:30.056736
MEAN_MOTION    = 15.36145286
ECCENTRICITY   = .0001539
INCLINATION    = 51.8817
RA_OF_ASC_NODE = 279.3102
ARG_OF_PERICENTER = 126.1997
MEAN_ANOMALY   = 233.9132

EPHEMERIS_TYPE = 0
CLASSIFICATION_TYPE = U
NORAD_CAT_ID   = 67788
ELEMENT_SET_NO = 999
REV_AT_EPOCH   = 317
BSTAR          = .66377E-3
MEAN_MOTION_DOT = .23425E-3
MEAN_MOTION_DDOT = 0

CCSDS_OMM_VERS = 2.0
CREATION_DATE  = 
ORIGINATOR     = 

OBJECT_NAME    = KUIPER-00266
OBJECT_ID      = 2026-030AB
CENTER_NAME    = EARTH
REF_FRAME      = TEME
TIME_SYSTEM    = UTC
MEAN_ELEMENT_THEORY = SGP/SGP4

EPOCH          = 2026-02-25T03:54:49.757760
MEAN_MOTION    = 15.31414677
ECCENTRICITY   = .0022111
INCLINATION    = 51.8815
RA_OF_ASC_NODE = 279.8472
ARG_OF_PERICENTER = 35.7724
MEAN_ANOMALY   = 324.4737

EPHEMERIS_TYPE = 0
CLASSIFICATION_TYPE = U
NORAD_CAT_ID   = 67789
ELEMENT_SET_NO = 999
REV_AT_EPOCH   = 316
BSTAR          = .13995E-3
MEAN_MOTION_DOT = .3963E-4
MEAN_MOTION_DDOT = 0

CCSDS_OMM_VERS = 2.0
CREATION_DATE  = 
ORIGINATOR     = 

OBJECT_NAME    = KUIPER-00268
OBJECT_ID      = 2026-030AC
CENTER_NAME    = EARTH
REF_FRAME      = TEME
TIME_SYSTEM    = UTC
MEAN_ELEMENT_THEORY = SGP/SGP4

EPOCH          = 2026-02-25T03:10:40.286208
MEAN_MOTION    = 15.35479095
ECCENTRICITY   = .0001808
INCLINATION    = 51.8853
RA_OF_ASC_NODE = 279.6584
ARG_OF_PERICENTER = 25.9832
MEAN_ANOMALY   = 334.1244

EPHEMERIS_TYPE = 0
CLASSIFICATION_TYPE = U
NORAD_CAT_ID   = 67790
ELEMENT_SET_NO = 999
REV_AT_EPOCH   = 316
BSTAR          = .52063E-3
MEAN_MOTION_DOT = .17885E-3
MEAN_MOTION_DDOT = 0

