KUIPER-00215            
1 67779U 26030R   26056.14500631  .00003494  00000+0  11616-3 0  9993
2 67779  51.8852 279.7403 0009894  23.5969 336.5468 15.33910417  3162
KUIPER-00218            
1 67780U 26030S   26056.13947190  .00022694  00000+0  67420-3 0  9996
2 67780  51.8845 279.7033 0006385  18.8566 341.2655 15.34663276  3167
KUIPER-00220            
1 67781U 26030T   26056.07798589  .00021712  00000+0  65549-3 0  9996
2 67781  51.8823 280.0362 0008004  20.8757 339.2554 15.34172976  3155
KUIPER-00222            
1 67782U 26030U   26056.08966260  .00020474  00000+0  65096-3 0  9992
2 67782  51.8820 280.1092 0017113  26.3298 333.8553 15.32454971  3151
KUIPER-00223            
1 67783U 26030V   26056.08203942  .00017893  00000+0  55040-3 0  9993
2 67783  51.8840 280.0654 0012046  22.9708 337.1813 15.33673722  3159
KUIPER-00225            
1 67784U 26030W   26056.13419806  .00027069  00000+0  78562-3 0  9998
2 67784  51.8818 279.6656 0003527  10.9070 349.1992 15.35307798  3165
KUIPER-00226            
1 67785U 26030X   26056.09544370  .00016105  00000+0  52894-3 0  9998
2 67785  51.8821 280.1473 0019886  32.8134 327.4081 15.31542284  3157
KUIPER-00259            
1 67786U 26030Y   26056.07565556  .00020636  00000+0  61740-3 0  9990
2 67786  51.8821 280.0211 0007712  13.9522 346.1675 15.34493918  3152
KUIPER-00260            
1 67787U 26030Z   26056.19457825  .00018352  00000+0  52774-3 0  9992
2 67787  51.8804 279.3208 0001231  82.8737 277.2390 15.35844817  3083
KUIPER-00262            
1 67788U 26030AA  26056.19270899  .00023425  00000+0  66377-3 0  9998
2 67788  51.8817 279.3102 0001539 126.1997 233.9132 15.36145286  3170
KUIPER-00266            
1 67789U 26030AB  26056.16307590  .00003963  00000+0  13995-3 0  9998
2 67789  51.8815 279.8472 0022111  35.7724 324.4737 15.31414677  3160
KUIPER-00268            
1 67790U 26030AC  26056.13241072  .00017885  00000+0  52063-3 0  9996
2 67790  51.8853 279.6584 0001808  25.9832 334.1244 15.35479095  3167
